{
    "CCSDS_OMM_VERS": "3.0",
    "COMMENT": "GENERATED VIA SPACE-TRACK.ORG API",
    "CREATION_DATE": "2025-05-22T22:46:20",
    "ORIGINATOR": "18 SPCS",
    "OBJECT_NAME": "BD-2-G7",
    "OBJECT_ID": "2016-037A",
    "CENTER_NAME": "EARTH",
    "REF_FRAME": "TEME",
    "TIME_SYSTEM": "UTC",
    "MEAN_ELEMENT_THEORY": "SGP4",
    "EPOCH": "2025-05-22T21:09:49.781088",
    "MEAN_MOTION": "1.00268295",
    "ECCENTRICITY": "0.00097000",
    "INCLINATION": "1.7029",
    "RA_OF_ASC_NODE": "68.6157",
    "ARG_OF_PERICENTER": "341.8357",
    "MEAN_ANOMALY": "258.2862",
    "EPHEMERIS_TYPE": "0",
    "CLASSIFICATION_TYPE": "U",
    "NORAD_CAT_ID": "41586",
    "ELEMENT_SET_NO": "999",
    "REV_AT_EPOCH": "3286",
    "BSTAR": "0.00000000000000",
    "MEAN_MOTION_DOT": "-0.00000343",
    "MEAN_MOTION_DDOT": "0.0000000000000",
    "SEMIMAJOR_AXIS": "42165.710",
    "PERIOD": "1436.147",
    "APOAPSIS": "35828.476",
    "PERIAPSIS": "35746.675",
    "OBJECT_TYPE": "PAYLOAD",
    "RCS_SIZE": "LARGE",
    "COUNTRY_CODE": "PRC",
    "LAUNCH_DATE": "2016-06-12",
    "SITE": "XSC",
    "DECAY_DATE": null,
    "FILE": "4736388",
    "GP_ID": "288163326",
    "TLE_LINE0": "0 BD-2-G7",
    "TLE_LINE1": "1 41586U 16037A   25142.88182617 -.00000343  00000-0  00000+0 0  9996",
    "TLE_LINE2": "2 41586   1.7029  68.6157 0009700 341.8357 258.2862  1.00268295 32860"
}